ADRAS-J                 
1 58992U 24034A   24275.55205007  .00011671  00000+0  10353-2 0  9999
2 58992  98.2233 253.5735 0044964  60.3259 300.2426 14.95578060 33754
